ONEWEB-0671             
1 55830U 23029AL  24040.58995016 -.00000013  00000+0 -63903-4 0  9990
2 55830  87.9180 115.8952 0002228 105.0334 255.1045 13.19722878 45657
ONEWEB-0672             
1 55831U 23029AM  24040.54189057  .00000111  00000+0  24170-3 0  9996
2 55831  87.9150  85.3325 0001558 100.6082 259.5227 13.20772763 47805
ONEWEB-0673             
1 55832U 23029AN  24040.56627023  .00000047  00000+0  84497-4 0  9996
2 55832  87.9182 115.8690 0002203 101.5099 258.6281 13.19726198 45651
ONEWEB-0674             
1 55833U 23029AP  24040.57196177 -.00000144  00000+0 -42172-3 0  9992
2 55833  87.8944 100.6358 0002465 110.7393 249.4001 13.14503550 46614
ONEWEB-0675             
1 55834U 23029AQ  24040.27877662  .00000069  00000+0  14004-3 0  9992
2 55834  87.9185 115.9534 0001538  92.2096 267.9213 13.19727206 45634
ONEWEB-0720             
1 55835U 23029AR  24040.57414842  .00000053  00000+0  99415-4 0  9996
2 55835  87.9184 115.8969 0002350  92.2896 267.8505 13.19727512 45594
ONEWEB-0537             
1 56046U 23043A   24040.50495705  .00000033  00000+0  53495-4 0  9993
2 56046  87.9043  39.6582 0001480  83.5985 276.5314 13.16595742 45974
